{
  "type": "FeatureCollection",
  "features": [
    {
      "type": "Feature",
      "properties": {
        "norad_id": 56759,
        "name": "NVS-01 (IRNSS-1J)",
        "group": "gnss",
        "lat": -1.8805539896812082,
        "lon": -155.23883768960192,
        "alt_km": 35770.05127777474,
        "timestamp": "2025-12-25T22:42:17.255228+00:00",
        "meta_object_name": "NVS-01 (IRNSS-1J)",
        "meta_object_id": "2023-076A",
        "meta_epoch": "2025-12-25T12:13:38.614080",
        "meta_mean_motion": 1.00270793,
        "meta_eccentricity": 0.0008901,
        "meta_inclination": 2.5885,
        "meta_ra_of_asc_node": 251.1474,
        "meta_arg_of_pericenter": 17.391,
        "meta_mean_anomaly": 138.7047,
        "meta_ephemeris_type": 0,
        "meta_classification_type": "U",
        "meta_norad_cat_id": 56759,
        "meta_element_set_no": 999,
        "meta_rev_at_epoch": 937,
        "meta_bstar": 0,
        "meta_mean_motion_dot": -3.13e-06,
        "meta_mean_motion_ddot": 0,
        "tle_line1": "1 56759U 23076A   25359.50947470 -.00000313  00000+0  00000+0 0  9996",
        "tle_line2": "2 56759   2.5885 251.1474 0008901  17.3910 138.7047  1.00270793  9373"
      },
      "geometry": {
        "type": "Point",
        "coordinates": [
          -155.23883768960192,
          -1.8805539896812082
        ]
      }
    },
    {
      "type": "Feature",
      "properties": {
        "norad_id": 57517,
        "name": "COSMOS 2569 (703K)",
        "group": "gnss",
        "lat": -54.370057478555744,
        "lon": -61.41840759329088,
        "alt_km": 19115.53676691742,
        "timestamp": "2025-12-25T22:42:17.255253+00:00",
        "meta_object_name": "COSMOS 2569 (703K)",
        "meta_object_id": "2023-114A",
        "meta_epoch": "2025-12-25T03:49:07.556736",
        "meta_mean_motion": 2.13103965,
        "meta_eccentricity": 0.00109757,
        "meta_inclination": 65.2004,
        "meta_ra_of_asc_node": 78.4938,
        "meta_arg_of_pericenter": 287.1624,
        "meta_mean_anomaly": 72.767,
        "meta_ephemeris_type": 0,
        "meta_classification_type": "U",
        "meta_norad_cat_id": 57517,
        "meta_element_set_no": 999,
        "meta_rev_at_epoch": 1855,
        "meta_bstar": 0,
        "meta_mean_motion_dot": -1e-08,
        "meta_mean_motion_ddot": 0,
        "tle_line1": "1 57517U 23114A   25359.15911524 -.00000001  00000+0  00000+0 0  9998",
        "tle_line2": "2 57517  65.2004  78.4938 0010975 287.1624  72.7670  2.13103965 18553"
      },
      "geometry": {
        "type": "Point",
        "coordinates": [
          -61.41840759329088,
          -54.370057478555744
        ]
      }
    },
    {
      "type": "Feature",
      "properties": {
        "norad_id": 58654,
        "name": "BEIDOU-3 M28 (C50)",
        "group": "gnss",
        "lat": 43.37679171989544,
        "lon": 108.46656025777973,
        "alt_km": 21529.25343723426,
        "timestamp": "2025-12-25T22:42:17.255267+00:00",
        "meta_object_name": "BEIDOU-3 M28 (C50)",
        "meta_object_id": "2023-207A",
        "meta_epoch": "2025-12-24T18:54:51.717312",
        "meta_mean_motion": 1.86229668,
        "meta_eccentricity": 0.0002918,
        "meta_inclination": 55.5946,
        "meta_ra_of_asc_node": 68.1934,
        "meta_arg_of_pericenter": 275.8619,
        "meta_mean_anomaly": 84.1589,
        "meta_ephemeris_type": 0,
        "meta_classification_type": "U",
        "meta_norad_cat_id": 58654,
        "meta_element_set_no": 999,
        "meta_rev_at_epoch": 1359,
        "meta_bstar": 0,
        "meta_mean_motion_dot": -2.7e-07,
        "meta_mean_motion_ddot": 0,
        "tle_line1": "1 58654U 23207A   25358.78809858 -.00000027  00000+0  00000+0 0  9996",
        "tle_line2": "2 58654  55.5946  68.1934 0002918 275.8619  84.1589  1.86229668 13594"
      },
      "geometry": {
        "type": "Point",
        "coordinates": [
          108.46656025777973,
          43.37679171989544
        ]
      }
    },
    {
      "type": "Feature",
      "properties": {
        "norad_id": 58655,
        "name": "BEIDOU-3 M26 (C48)",
        "group": "gnss",
        "lat": -9.905437577298756,
        "lon": -104.97885411974914,
        "alt_km": 21525.418053124442,
        "timestamp": "2025-12-25T22:42:17.255278+00:00",
        "meta_object_name": "BEIDOU-3 M26 (C48)",
        "meta_object_id": "2023-207B",
        "meta_epoch": "2025-12-25T15:49:44.827104",
        "meta_mean_motion": 1.86231167,
        "meta_eccentricity": 0.0004253,
        "meta_inclination": 55.5974,
        "meta_ra_of_asc_node": 68.1501,
        "meta_arg_of_pericenter": 261.5267,
        "meta_mean_anomaly": 98.4781,
        "meta_ephemeris_type": 0,
        "meta_classification_type": "U",
        "meta_norad_cat_id": 58655,
        "meta_element_set_no": 999,
        "meta_rev_at_epoch": 1359,
        "meta_bstar": 0,
        "meta_mean_motion_dot": -2.9e-07,
        "meta_mean_motion_ddot": 0,
        "tle_line1": "1 58655U 23207B   25359.65954661 -.00000029  00000+0  00000+0 0  9999",
        "tle_line2": "2 58655  55.5974  68.1501 0004253 261.5267  98.4781  1.86231167 13590"
      },
      "geometry": {
        "type": "Point",
        "coordinates": [
          -104.97885411974914,
          -9.905437577298756
        ]
      }
    },
    {
      "type": "Feature",
      "properties": {
        "norad_id": 59598,
        "name": "GSAT0225 (GALILEO 29)",
        "group": "gnss",
        "lat": 52.92935538258254,
        "lon": -141.86966430961692,
        "alt_km": 23215.706739944264,
        "timestamp": "2025-12-25T22:42:17.255289+00:00",
        "meta_object_name": "GSAT0225 (GALILEO 29)",
        "meta_object_id": "2024-079A",
        "meta_epoch": "2025-12-25T18:42:53.226144",
        "meta_mean_motion": 1.70474814,
        "meta_eccentricity": 0.0002177,
        "meta_inclination": 55.0084,
        "meta_ra_of_asc_node": 105.9312,
        "meta_arg_of_pericenter": 191.4017,
        "meta_mean_anomaly": 169.7242,
        "meta_ephemeris_type": 0,
        "meta_classification_type": "U",
        "meta_norad_cat_id": 59598,
        "meta_element_set_no": 999,
        "meta_rev_at_epoch": 1036,
        "meta_bstar": 0,
        "meta_mean_motion_dot": 1.7e-07,
        "meta_mean_motion_ddot": 0,
        "tle_line1": "1 59598U 24079A   25359.77978271  .00000017  00000+0  00000+0 0  9996",
        "tle_line2": "2 59598  55.0084 105.9312 0002177 191.4017 169.7242  1.70474814 10368"
      },
      "geometry": {
        "type": "Point",
        "coordinates": [
          -141.86966430961692,
          52.92935538258254
        ]
      }
    },
    {
      "type": "Feature",
      "properties": {
        "norad_id": 59600,
        "name": "GSAT0227 (GALILEO 30)",
        "group": "gnss",
        "lat": -7.6972092569884705,
        "lon": 100.49942885219758,
        "alt_km": 23228.35898727674,
        "timestamp": "2025-12-25T22:42:17.255300+00:00",
        "meta_object_name": "GSAT0227 (GALILEO 30)",
        "meta_object_id": "2024-079C",
        "meta_epoch": "2025-12-21T20:31:35.455872",
        "meta_mean_motion": 1.70474868,
        "meta_eccentricity": 0.00028355,
        "meta_inclination": 55.0019,
        "meta_ra_of_asc_node": 106.0394,
        "meta_arg_of_pericenter": 117.3615,
        "meta_mean_anomaly": 242.6419,
        "meta_ephemeris_type": 0,
        "meta_classification_type": "U",
        "meta_norad_cat_id": 59600,
        "meta_element_set_no": 999,
        "meta_rev_at_epoch": 1034,
        "meta_bstar": 0,
        "meta_mean_motion_dot": 4e-08,
        "meta_mean_motion_ddot": 0,
        "tle_line1": "1 59600U 24079C   25355.85527148  .00000004  00000+0  00000+0 0  9994",
        "tle_line2": "2 59600  55.0019 106.0394 0002835 117.3615 242.6419  1.70474868 10348"
      },
      "geometry": {
        "type": "Point",
        "coordinates": [
          100.49942885219758,
          -7.6972092569884705
        ]
      }
    },
    {
      "type": "Feature",
      "properties": {
        "norad_id": 61182,
        "name": "GSAT0232 (GALILEO 32)",
        "group": "gnss",
        "lat": -4.141473024910894,
        "lon": 48.96412551665412,
        "alt_km": 23217.701728231583,
        "timestamp": "2025-12-25T22:42:17.255311+00:00",
        "meta_object_name": "GSAT0232 (GALILEO 32)",
        "meta_object_id": "2024-167A",
        "meta_epoch": "2025-12-24T18:25:47.943264",
        "meta_mean_motion": 1.70473505,
        "meta_eccentricity": 0.0001887,
        "meta_inclination": 55.2374,
        "meta_ra_of_asc_node": 226.1008,
        "meta_arg_of_pericenter": 202.1814,
        "meta_mean_anomaly": 339.8736,
        "meta_ephemeris_type": 0,
        "meta_classification_type": "U",
        "meta_norad_cat_id": 61182,
        "meta_element_set_no": 999,
        "meta_rev_at_epoch": 790,
        "meta_bstar": 0,
        "meta_mean_motion_dot": 7.1e-07,
        "meta_mean_motion_ddot": 0,
        "tle_line1": "1 61182U 24167A   25358.76791601  .00000071  00000+0  00000+0 0  9994",
        "tle_line2": "2 61182  55.2374 226.1008 0001887 202.1814 339.8736  1.70473505  7904"
      },
      "geometry": {
        "type": "Point",
        "coordinates": [
          48.96412551665412,
          -4.141473024910894
        ]
      }
    }
  ]
}